ORBCOMM-X [-]           
1 21576U 91050C   23283.09494919  .00000802  00000+0  25679-3 0  9990
2 21576  98.4239 349.0004 0002684 234.8980 125.1958 14.42203634693505
ORBCOMM FM01 [-]        
1 23545U 95017A   23283.07935717  .00007977  00000+0  11460-2 0  9991
2 23545  69.9684 152.7032 0005768 202.1671 157.9229 14.76752702521530
ORBCOMM FM02 [-]        
1 23546U 95017B   23283.11578988  .00010058  00000+0  14578-2 0  9997
2 23546  69.9708 171.6477 0007101 187.6481 172.4559 14.76271774521140
ORBCOMM FM08 [-]        
1 25112U 97084A   23283.48360846  .00004209  00000+0  13307-2 0  9996
2 25112  45.0142  72.2776 0006365  23.6116 336.5025 14.41357441352580
ORBCOMM FM10 [-]        
1 25113U 97084B   23282.85617884  .00003975  00000+0  12610-2 0  9999
2 25113  45.0153  76.9841 0004112 344.7152  15.3573 14.41293600352487
ORBCOMM FM11 [+]        
1 25114U 97084C   23283.41249178  .00003732  00000+0  11892-2 0  9992
2 25114  45.0138  74.2407 0004800 348.3648  11.7090 14.41182550352557
ORBCOMM FM12 [-]        
1 25115U 97084D   23283.50729073  .00003764  00000+0  11994-2 0  9998
2 25115  45.0151  73.4307 0003835 349.6713  10.4058 14.41174004352574
ORBCOMM FM09 [-]        
1 25116U 97084E   23282.82085830  .00003943  00000+0  12548-2 0  9994
2 25116  45.0150  77.3323 0005188 328.1223  31.9312 14.41150899352449
